CCSDS_OMM_VERS = 2.0
CREATION_DATE  = 
ORIGINATOR     = 

OBJECT_NAME    = HTV-X1
OBJECT_ID      = 2025-241A
CENTER_NAME    = EARTH
REF_FRAME      = TEME
TIME_SYSTEM    = UTC
MEAN_ELEMENT_THEORY = SGP/SGP4

EPOCH          = 2025-11-24T03:47:00.254976
MEAN_MOTION    = 15.49035693
ECCENTRICITY   = .0003916
INCLINATION    = 51.6317
RA_OF_ASC_NODE = 234.4566
ARG_OF_PERICENTER = 162.1487
MEAN_ANOMALY   = 197.9639

EPHEMERIS_TYPE = 0
CLASSIFICATION_TYPE = U
NORAD_CAT_ID   = 66174
ELEMENT_SET_NO = 999
REV_AT_EPOCH   = 145
BSTAR          = .26124382E-3
MEAN_MOTION_DOT = .13988E-3
MEAN_MOTION_DDOT = 0

CCSDS_OMM_VERS = 2.0
CREATION_DATE  = 
ORIGINATOR     = 

OBJECT_NAME    = GAOFEN-14 02
OBJECT_ID      = 2025-242A
CENTER_NAME    = EARTH
REF_FRAME      = TEME
TIME_SYSTEM    = UTC
MEAN_ELEMENT_THEORY = SGP/SGP4

EPOCH          = 2025-11-14T11:10:24.597408
MEAN_MOTION    = 15.27766001
ECCENTRICITY   = .00110173
INCLINATION    = 97.4386
RA_OF_ASC_NODE = 30.6022
ARG_OF_PERICENTER = 193.9078
MEAN_ANOMALY   = 166.1859

EPHEMERIS_TYPE = 0
CLASSIFICATION_TYPE = U
NORAD_CAT_ID   = 66175
ELEMENT_SET_NO = 999
REV_AT_EPOCH   = 295
BSTAR          = .52317515E-3
MEAN_MOTION_DOT = .14152E-3
MEAN_MOTION_DDOT = 0

CCSDS_OMM_VERS = 2.0
CREATION_DATE  = 
ORIGINATOR     = 

OBJECT_NAME    = CZ-3B R/B
OBJECT_ID      = 2025-242B
CENTER_NAME    = EARTH
REF_FRAME      = TEME
TIME_SYSTEM    = UTC
MEAN_ELEMENT_THEORY = SGP/SGP4

EPOCH          = 2025-11-05T15:49:27.402816
MEAN_MOTION    = 15.41457457
ECCENTRICITY   = .01037786
INCLINATION    = 97.4571
RA_OF_ASC_NODE = 21.8726
ARG_OF_PERICENTER = 5.1082
MEAN_ANOMALY   = 355.1197

EPHEMERIS_TYPE = 0
CLASSIFICATION_TYPE = U
NORAD_CAT_ID   = 66176
ELEMENT_SET_NO = 999
REV_AT_EPOCH   = 162
BSTAR          = .58814912E-3
MEAN_MOTION_DOT = .29904E-3
MEAN_MOTION_DDOT = 0

CCSDS_OMM_VERS = 2.0
CREATION_DATE  = 
ORIGINATOR     = 

OBJECT_NAME    = STARLINK-35352
OBJECT_ID      = 2025-243A
CENTER_NAME    = EARTH
REF_FRAME      = TEME
TIME_SYSTEM    = UTC
MEAN_ELEMENT_THEORY = SGP/SGP4

EPOCH          = 2025-11-24T20:00:04.000032
MEAN_MOTION    = 15.41985714
ECCENTRICITY   = .0001613
INCLINATION    = 53.1598
RA_OF_ASC_NODE = 12.4451
ARG_OF_PERICENTER = 66.8131
MEAN_ANOMALY   = 79.5319

EPHEMERIS_TYPE = 0
CLASSIFICATION_TYPE = U
NORAD_CAT_ID   = 66177
ELEMENT_SET_NO = 999
REV_AT_EPOCH   = 570
BSTAR          = -.54524E-1
MEAN_MOTION_DOT = -.2090853E-1
MEAN_MOTION_DDOT = 0

CCSDS_OMM_VERS = 2.0
CREATION_DATE  = 
ORIGINATOR     = 

OBJECT_NAME    = STARLINK-35363
OBJECT_ID      = 2025-243B
CENTER_NAME    = EARTH
REF_FRAME      = TEME
TIME_SYSTEM    = UTC
MEAN_ELEMENT_THEORY = SGP/SGP4

EPOCH          = 2025-11-24T20:00:04.000032
MEAN_MOTION    = 15.39967175
ECCENTRICITY   = .000153
INCLINATION    = 53.1600
RA_OF_ASC_NODE = 12.4798
ARG_OF_PERICENTER = 64.5884
MEAN_ANOMALY   = 64.4552

EPHEMERIS_TYPE = 0
CLASSIFICATION_TYPE = U
NORAD_CAT_ID   = 66178
ELEMENT_SET_NO = 999
REV_AT_EPOCH   = 576
BSTAR          = -.5829E-1
MEAN_MOTION_DOT = -.2089165E-1
MEAN_MOTION_DDOT = 0

CCSDS_OMM_VERS = 2.0
CREATION_DATE  = 
ORIGINATOR     = 

OBJECT_NAME    = STARLINK-35346
OBJECT_ID      = 2025-243C
CENTER_NAME    = EARTH
REF_FRAME      = TEME
TIME_SYSTEM    = UTC
MEAN_ELEMENT_THEORY = SGP/SGP4

EPOCH          = 2025-11-24T20:00:04.000032
MEAN_MOTION    = 15.38887999
ECCENTRICITY   = .0001276
INCLINATION    = 53.1595
RA_OF_ASC_NODE = 12.5003
ARG_OF_PERICENTER = 60.9750
MEAN_ANOMALY   = 57.6526

EPHEMERIS_TYPE = 0
CLASSIFICATION_TYPE = U
NORAD_CAT_ID   = 66179
ELEMENT_SET_NO = 999
REV_AT_EPOCH   = 570
BSTAR          = -.60292E-1
MEAN_MOTION_DOT = -.2085249E-1
MEAN_MOTION_DDOT = 0

CCSDS_OMM_VERS = 2.0
CREATION_DATE  = 
ORIGINATOR     = 

OBJECT_NAME    = STARLINK-35335
OBJECT_ID      = 2025-243D
CENTER_NAME    = EARTH
REF_FRAME      = TEME
TIME_SYSTEM    = UTC
MEAN_ELEMENT_THEORY = SGP/SGP4

EPOCH          = 2025-11-24T20:00:04.000032
MEAN_MOTION    = 15.37892678
ECCENTRICITY   = .0001185
INCLINATION    = 53.1592
RA_OF_ASC_NODE = 12.5213
ARG_OF_PERICENTER = 66.0439
MEAN_ANOMALY   = 42.1054

EPHEMERIS_TYPE = 0
CLASSIFICATION_TYPE = U
NORAD_CAT_ID   = 66180
ELEMENT_SET_NO = 999
REV_AT_EPOCH   = 570
BSTAR          = -.60935E-1
MEAN_MOTION_DOT = -.2044621E-1
MEAN_MOTION_DDOT = 0

CCSDS_OMM_VERS = 2.0
CREATION_DATE  = 
ORIGINATOR     = 

OBJECT_NAME    = STARLINK-35342
OBJECT_ID      = 2025-243E
CENTER_NAME    = EARTH
REF_FRAME      = TEME
TIME_SYSTEM    = UTC
MEAN_ELEMENT_THEORY = SGP/SGP4

EPOCH          = 2025-11-24T20:00:04.000032
MEAN_MOTION    = 15.37259591
ECCENTRICITY   = .0001174
INCLINATION    = 53.1595
RA_OF_ASC_NODE = 12.5373
ARG_OF_PERICENTER = 62.8947
MEAN_ANOMALY   = 37.5526

EPHEMERIS_TYPE = 0
CLASSIFICATION_TYPE = U
NORAD_CAT_ID   = 66181
ELEMENT_SET_NO = 999
REV_AT_EPOCH   = 570
BSTAR          = -.61092E-1
MEAN_MOTION_DOT = -.2011879E-1
MEAN_MOTION_DDOT = 0

CCSDS_OMM_VERS = 2.0
CREATION_DATE  = 
ORIGINATOR     = 

OBJECT_NAME    = STARLINK-35333
OBJECT_ID      = 2025-243F
CENTER_NAME    = EARTH
REF_FRAME      = TEME
TIME_SYSTEM    = UTC
MEAN_ELEMENT_THEORY = SGP/SGP4

EPOCH          = 2025-11-24T20:00:04.000032
MEAN_MOTION    = 15.34316106
ECCENTRICITY   = .0000947
INCLINATION    = 53.1597
RA_OF_ASC_NODE = 12.6025
ARG_OF_PERICENTER = 104.6720
MEAN_ANOMALY   = 322.7297

EPHEMERIS_TYPE = 0
CLASSIFICATION_TYPE = U
NORAD_CAT_ID   = 66182
ELEMENT_SET_NO = 999
REV_AT_EPOCH   = 565
BSTAR          = -.62291E-1
MEAN_MOTION_DOT = -.1880084E-1
MEAN_MOTION_DDOT = 0

CCSDS_OMM_VERS = 2.0
CREATION_DATE  = 
ORIGINATOR     = 

OBJECT_NAME    = STARLINK-35310
OBJECT_ID      = 2025-243G
CENTER_NAME    = EARTH
REF_FRAME      = TEME
TIME_SYSTEM    = UTC
MEAN_ELEMENT_THEORY = SGP/SGP4

EPOCH          = 2025-11-24T20:00:04.000032
MEAN_MOTION    = 15.35577620
ECCENTRICITY   = .0001042
INCLINATION    = 53.1587
RA_OF_ASC_NODE = 12.5791
ARG_OF_PERICENTER = 82.1825
MEAN_ANOMALY   = 357.1993

EPHEMERIS_TYPE = 0
CLASSIFICATION_TYPE = U
NORAD_CAT_ID   = 66183
ELEMENT_SET_NO = 999
REV_AT_EPOCH   = 576
BSTAR          = -.6426E-1
MEAN_MOTION_DOT = -.2004446E-1
MEAN_MOTION_DDOT = 0

CCSDS_OMM_VERS = 2.0
CREATION_DATE  = 
ORIGINATOR     = 

OBJECT_NAME    = STARLINK-35317
OBJECT_ID      = 2025-243H
CENTER_NAME    = EARTH
REF_FRAME      = TEME
TIME_SYSTEM    = UTC
MEAN_ELEMENT_THEORY = SGP/SGP4

EPOCH          = 2025-11-24T20:00:04.000032
MEAN_MOTION    = 15.41447518
ECCENTRICITY   = .0001228
INCLINATION    = 53.1599
RA_OF_ASC_NODE = 12.5216
ARG_OF_PERICENTER = 69.9187
MEAN_ANOMALY   = 40.5953

EPHEMERIS_TYPE = 0
CLASSIFICATION_TYPE = U
NORAD_CAT_ID   = 66184
ELEMENT_SET_NO = 999
REV_AT_EPOCH   = 570
BSTAR          = -.55089E-1
MEAN_MOTION_DOT = -.2076167E-1
MEAN_MOTION_DDOT = 0

CCSDS_OMM_VERS = 2.0
CREATION_DATE  = 
ORIGINATOR     = 

OBJECT_NAME    = STARLINK-35377
OBJECT_ID      = 2025-243J
CENTER_NAME    = EARTH
REF_FRAME      = TEME
TIME_SYSTEM    = UTC
MEAN_ELEMENT_THEORY = SGP/SGP4

EPOCH          = 2025-11-24T20:00:04.000032
MEAN_MOTION    = 15.37878293
ECCENTRICITY   = .0001078
INCLINATION    = 53.1598
RA_OF_ASC_NODE = 12.5831
ARG_OF_PERICENTER = 68.3712
MEAN_ANOMALY   = 11.0026

EPHEMERIS_TYPE = 0
CLASSIFICATION_TYPE = U
NORAD_CAT_ID   = 66185
ELEMENT_SET_NO = 999
REV_AT_EPOCH   = 576
BSTAR          = -.6023E-1
MEAN_MOTION_DOT = -.2022693E-1
MEAN_MOTION_DDOT = 0

