HTV-X1                  
1 66174U 25241A   25328.15764184  .00013988  00000+0  26124-3 0  9990
2 66174  51.6317 234.4566 0003916 162.1487 197.9639 15.49035693  1456
GAOFEN-14 02            
1 66175U 25242A   25318.46556247  .00014152  00000+0  52318-3 0  9992
2 66175  97.4386  30.6022 0011017 193.9078 166.1859 15.27766001  2951
CZ-3B R/B               
1 66176U 25242B   25309.65934494  .00029904  00000+0  58815-3 0  9997
2 66176  97.4571  21.8726 0103778   5.1082 355.1197 15.41457457  1622
STARLINK-35352          
1 66177U 25243A   25328.83337963 -.02090853  00000+0 -54524-1 0  9994
2 66177  53.1598  12.4451 0001613  66.8131  79.5319 15.41985714  5704
STARLINK-35363          
1 66178U 25243B   25328.83337963 -.02089165  00000+0 -58290-1 0  9993
2 66178  53.1600  12.4798 0001530  64.5884  64.4552 15.39967175  5767
STARLINK-35346          
1 66179U 25243C   25328.83337963 -.02085249  00000+0 -60292-1 0  9998
2 66179  53.1595  12.5003 0001276  60.9750  57.6526 15.38887999  5703
STARLINK-35335          
1 66180U 25243D   25328.83337963 -.02044621  00000+0 -60935-1 0  9993
2 66180  53.1592  12.5213 0001185  66.0439  42.1054 15.37892678  5709
STARLINK-35342          
1 66181U 25243E   25328.83337963 -.02011879  00000+0 -61092-1 0  9998
2 66181  53.1595  12.5373 0001174  62.8947  37.5526 15.37259591  5709
STARLINK-35333          
1 66182U 25243F   25328.83337963 -.01880084  00000+0 -62291-1 0  9992
2 66182  53.1597  12.6025 0000947 104.6720 322.7297 15.34316106  5659
STARLINK-35310          
1 66183U 25243G   25328.83337963 -.02004446  00000+0 -64260-1 0  9992
2 66183  53.1587  12.5791 0001042  82.1825 357.1993 15.35577620  5769
STARLINK-35317          
1 66184U 25243H   25328.83337963 -.02076167  00000+0 -55089-1 0  9991
2 66184  53.1599  12.5216 0001228  69.9187  40.5953 15.41447518  5707
STARLINK-35377          
1 66185U 25243J   25328.83337963 -.02022693  00000+0 -60230-1 0  9991
2 66185  53.1598  12.5831 0001078  68.3712  11.0026 15.37878293  5763
